{"type": "FeatureCollection", "features": [ {"type": "Feature", "properties": {"norad_id": 66837, "name": "STARLINK-35729", "group": "last-30-days", "lat": 1.4190659919238302, "lon": 0.1478765471551109, "alt_km": 405.8972059618609, "timestamp": "2025-12-19T04:59:47.031603+00:00", "meta": {"OBJECT_NAME": "STARLINK-35729", "OBJECT_ID": "2025-280S", "EPOCH": "2025-12-18T22:00:00.999936", "MEAN_MOTION": 15.55799972, "ECCENTRICITY": 0.0003796, "INCLINATION": 69.9998, "RA_OF_ASC_NODE": 181.4661, "ARG_OF_PERICENTER": 268.1427, "MEAN_ANOMALY": 78.7597, "EPHEMERIS_TYPE": 0, "CLASSIFICATION_TYPE": "U", "NORAD_CAT_ID": 66837, "ELEMENT_SET_NO": 999, "REV_AT_EPOCH": 389, "BSTAR": -0.033019174, "MEAN_MOTION_DOT": -0.02007714, "MEAN_MOTION_DDOT": 0}, "tle": {"line1": "1 66837U 25280S   25352.91667824 -.02007714  00000+0 -33019-1 0  9996", "line2": "2 66837  69.9998 181.4661 0003796 268.1427  78.7597 15.55799972  3896"}}, "geometry": {"type": "Point", "coordinates": [0.1478765471551109, 1.4190659919238302]}}, {"type": "Feature", "properties": {"norad_id": 66838, "name": "STARLINK-35886", "group": "last-30-days", "lat": -2.1832091509015243, "lon": 1.45557734710931, "alt_km": 406.2534171052466, "timestamp": "2025-12-19T04:59:47.031613+00:00", "meta": {"OBJECT_NAME": "STARLINK-35886", "OBJECT_ID": "2025-280T", "EPOCH": "2025-12-18T22:00:00.999936", "MEAN_MOTION": 15.55797671, "ECCENTRICITY": 0.00037365, "INCLINATION": 69.9996, "RA_OF_ASC_NODE": 181.4612, "ARG_OF_PERICENTER": 269.4407, "MEAN_ANOMALY": 81.2935, "EPHEMERIS_TYPE": 0, "CLASSIFICATION_TYPE": "U", "NORAD_CAT_ID": 66838, "ELEMENT_SET_NO": 999, "REV_AT_EPOCH": 389, "BSTAR": -0.0328769, "MEAN_MOTION_DOT": -0.01999934, "MEAN_MOTION_DDOT": 0}, "tle": {"line1": "1 66838U 25280T   25352.91667824 -.01999934  00000+0 -32877-1 0  9991", "line2": "2 66838  69.9996 181.4612 0003736 269.4407  81.2935 15.55797671  3896"}}, "geometry": {"type": "Point", "coordinates": [1.45557734710931, -2.1832091509015243]}}, {"type": "Feature", "properties": {"norad_id": 66839, "name": "STARLINK-35717", "group": "last-30-days", "lat": -0.38096099865807564, "lon": 0.8011265632705611, "alt_km": 405.99215029376955, "timestamp": "2025-12-19T04:59:47.031623+00:00", "meta": {"OBJECT_NAME": "STARLINK-35717", "OBJECT_ID": "2025-280U", "EPOCH": "2025-12-18T22:00:00.999936", "MEAN_MOTION": 15.55802214, "ECCENTRICITY": 0.00037594, "INCLINATION": 69.9999, "RA_OF_ASC_NODE": 181.4636, "ARG_OF_PERICENTER": 266.826, "MEAN_ANOMALY": 81.9893, "EPHEMERIS_TYPE": 0, "CLASSIFICATION_TYPE": "U", "NORAD_CAT_ID": 66839, "ELEMENT_SET_NO": 999, "REV_AT_EPOCH": 389, "BSTAR": -0.03304054, "MEAN_MOTION_DOT": -0.02046787, "MEAN_MOTION_DDOT": 0}, "tle": {"line1": "1 66839U 25280U   25352.91667824 -.02046787  00000+0 -33041-1 0  9996", "line2": "2 66839  69.9999 181.4636 0003759 266.8260  81.9893 15.55802214  3899"}}, "geometry": {"type": "Point", "coordinates": [0.8011265632705611, -0.38096099865807564]}}, {"type": "Feature", "properties": {"norad_id": 66840, "name": "STARLINK-35837", "group": "last-30-days", "lat": -3.98356757543475, "lon": 2.112324848493884, "alt_km": 406.51360845114505, "timestamp": "2025-12-19T04:59:47.031635+00:00", "meta": {"OBJECT_NAME": "STARLINK-35837", "OBJECT_ID": "2025-280V", "EPOCH": "2025-12-18T22:00:00.999936", "MEAN_MOTION": 15.5581198, "ECCENTRICITY": 0.00037098, "INCLINATION": 69.9996, "RA_OF_ASC_NODE": 181.4601, "ARG_OF_PERICENTER": 271.4172, "MEAN_ANOMALY": 81.2305, "EPHEMERIS_TYPE": 0, "CLASSIFICATION_TYPE": "U", "NORAD_CAT_ID": 66840, "ELEMENT_SET_NO": 999, "REV_AT_EPOCH": 389, "BSTAR": -0.033475629, "MEAN_MOTION_DOT": -0.02071491, "MEAN_MOTION_DDOT": 0}, "tle": {"line1": "1 66840U 25280V   25352.91667824 -.02071491  00000+0 -33476-1 0  9990", "line2": "2 66840  69.9996 181.4601 0003709 271.4172  81.2305 15.55811980  3890"}}, "geometry": {"type": "Point", "coordinates": [2.112324848493884, -3.98356757543475]}}, {"type": "Feature", "properties": {"norad_id": 66841, "name": "STARLINK-35715", "group": "last-30-days", "lat": -5.78298329789969, "lon": 2.770024580303769, "alt_km": 406.40881157204694, "timestamp": "2025-12-19T04:59:47.031645+00:00", "meta": {"OBJECT_NAME": "STARLINK-35715", "OBJECT_ID": "2025-280W", "EPOCH": "2025-12-18T22:00:00.999936", "MEAN_MOTION": 15.55799211, "ECCENTRICITY": 0.00037053, "INCLINATION": 69.9994, "RA_OF_ASC_NODE": 181.4572, "ARG_OF_PERICENTER": 266.3168, "MEAN_ANOMALY": 88.2489, "EPHEMERIS_TYPE": 0, "CLASSIFICATION_TYPE": "U", "NORAD_CAT_ID": 66841, "ELEMENT_SET_NO": 999, "REV_AT_EPOCH": 389, "BSTAR": -0.032965903, "MEAN_MOTION_DOT": -0.02004747, "MEAN_MOTION_DDOT": 0}, "tle": {"line1": "1 66841U 25280W   25352.91667824 -.02004747  00000+0 -32966-1 0  9994", "line2": "2 66841  69.9994 181.4572 0003705 266.3168  88.2489 15.55799211  3892"}}, "geometry": {"type": "Point", "coordinates": [2.770024580303769, -5.78298329789969]}}, {"type": "Feature", "properties": {"norad_id": 66842, "name": "STARLINK-35769", "group": "last-30-days", "lat": -7.582390405431863, "lon": 3.4329779455339873, "alt_km": 406.66051963745576, "timestamp": "2025-12-19T04:59:47.031657+00:00", "meta": {"OBJECT_NAME": "STARLINK-35769", "OBJECT_ID": "2025-280X", "EPOCH": "2025-12-18T22:00:00.999936", "MEAN_MOTION": 15.55800214, "ECCENTRICITY": 0.00037706, "INCLINATION": 69.9997, "RA_OF_ASC_NODE": 181.4551, "ARG_OF_PERICENTER": 269.1994, "MEAN_ANOMALY": 87.2841, "EPHEMERIS_TYPE": 0, "CLASSIFICATION_TYPE": "U", "NORAD_CAT_ID": 66842, "ELEMENT_SET_NO": 999, "REV_AT_EPOCH": 389, "BSTAR": -0.033015945, "MEAN_MOTION_DOT": -0.02007535, "MEAN_MOTION_DDOT": 0}, "tle": {"line1": "1 66842U 25280X   25352.91667824 -.02007535  00000+0 -33016-1 0  9990", "line2": "2 66842  69.9997 181.4551 0003770 269.1994  87.2841 15.55800214  3890"}}, "geometry": {"type": "Point", "coordinates": [3.4329779455339873, -7.582390405431863]}}, {"type": "Feature", "properties": {"norad_id": 66843, "name": "STARLINK-35997", "group": "last-30-days", "lat": -11.177398541924415, "lon": 4.775283364007477, "alt_km": 406.82445893899876, "timestamp": "2025-12-19T04:59:47.031668+00:00", "meta": {"OBJECT_NAME": "STARLINK-35997", "OBJECT_ID": "2025-280Y", "EPOCH": "2025-12-18T22:00:00.999936", "MEAN_MOTION": 15.55797529, "ECCENTRICITY": 0.00036314, "INCLINATION": 69.9998, "RA_OF_ASC_NODE": 181.4493, "ARG_OF_PERICENTER": 267.1044, "MEAN_ANOMALY": 93.2098, "EPHEMERIS_TYPE": 0, "CLASSIFICATION_TYPE": "U", "NORAD_CAT_ID": 66843, "ELEMENT_SET_NO": 999, "REV_AT_EPOCH": 389, "BSTAR": -0.032855662, "MEAN_MOTION_DOT": -0.01998699, "MEAN_MOTION_DDOT": 0}, "tle": {"line1": "1 66843U 25280Y   25352.91667824 -.01998699  00000+0 -32856-1 0  9991", "line2": "2 66843  69.9998 181.4493 0003631 267.1044  93.2098 15.55797529  3892"}}, "geometry": {"type": "Point", "coordinates": [4.775283364007477, -11.177398541924415]}}, {"type": "Feature", "properties": {"norad_id": 66844, "name": "STARLINK-36073", "group": "last-30-days", "lat": -9.380948945507322, "lon": 4.101333330961757, "alt_km": 406.7279578032967, "timestamp": "2025-12-19T04:59:47.031678+00:00", "meta": {"OBJECT_NAME": "STARLINK-36073", "OBJECT_ID": "2025-280Z", "EPOCH": "2025-12-18T22:00:00.999936", "MEAN_MOTION": 15.5579675, "ECCENTRICITY": 0.00036087, "INCLINATION": 69.9995, "RA_OF_ASC_NODE": 181.4527, "ARG_OF_PERICENTER": 267.389, "MEAN_ANOMALY": 91.0107, "EPHEMERIS_TYPE": 0, "CLASSIFICATION_TYPE": "U", "NORAD_CAT_ID": 66844, "ELEMENT_SET_NO": 999, "REV_AT_EPOCH": 389, "BSTAR": -0.032908872, "MEAN_MOTION_DOT": -0.02001463, "MEAN_MOTION_DDOT": 0}, "tle": {"line1": "1 66844U 25280Z   25352.91667824 -.02001463  00000+0 -32909-1 0  9996", "line2": "2 66844  69.9995 181.4527 0003608 267.3890  91.0107 15.55796750  3895"}}, "geometry": {"type": "Point", "coordinates": [4.101333330961757, -9.380948945507322]}}, {"type": "Feature", "properties": {"norad_id": 66845, "name": "STARLINK-36068", "group": "last-30-days", "lat": -16.554754017414727, "lon": 6.857901337763219, "alt_km": 407.49319092011956, "timestamp": "2025-12-19T04:59:47.031692+00:00", "meta": {"OBJECT_NAME": "STARLINK-36068", "OBJECT_ID": "2025-280AA", "EPOCH": "2025-12-18T22:00:00.999936", "MEAN_MOTION": 15.55819011, "ECCENTRICITY": 0.00036622, "INCLINATION": 69.9997, "RA_OF_ASC_NODE": 181.4435, "ARG_OF_PERICENTER": 274.8378, "MEAN_ANOMALY": 91.221, "EPHEMERIS_TYPE": 0, "CLASSIFICATION_TYPE": "U", "NORAD_CAT_ID": 66845, "ELEMENT_SET_NO": 999, "REV_AT_EPOCH": 389, "BSTAR": -0.033704166, "MEAN_MOTION_DOT": -0.02084556, "MEAN_MOTION_DDOT": 0}, "tle": {"line1": "1 66845U 25280AA  25352.91667824 -.02084556  00000+0 -33704-1 0  9995", "line2": "2 66845  69.9997 181.4435 0003662 274.8378  91.2210 15.55819011  3893"}}, "geometry": {"type": "Point", "coordinates": [6.857901337763219, -16.554754017414727]}}, {"type": "Feature", "properties": {"norad_id": 66846, "name": "STARLINK-36055", "group": "last-30-days", "lat": -12.971260067794859, "lon": 5.458723291909846, "alt_km": 407.0058127436441, "timestamp": "2025-12-19T04:59:47.031702+00:00", "meta": {"OBJECT_NAME": "STARLINK-36055", "OBJECT_ID": "2025-280AB", "EPOCH": "2025-12-18T22:00:00.999936", "MEAN_MOTION": 15.5579494, "ECCENTRICITY": 0.00038743, "INCLINATION": 69.9998, "RA_OF_ASC_NODE": 181.4473, "ARG_OF_PERICENTER": 269.8512, "MEAN_ANOMALY": 92.3823, "EPHEMERIS_TYPE": 0, "CLASSIFICATION_TYPE": "U", "NORAD_CAT_ID": 66846, "ELEMENT_SET_NO": 999, "REV_AT_EPOCH": 389, "BSTAR": -0.032767057, "MEAN_MOTION_DOT": -0.01994025, "MEAN_MOTION_DDOT": 0}, "tle": {"line1": "1 66846U 25280AB  25352.91667824 -.01994025  00000+0 -32767-1 0  9994", "line2": "2 66846  69.9998 181.4473 0003874 269.8512  92.3823 15.55794940  3891"}}, "geometry": {"type": "Point", "coordinates": [5.458723291909846, -12.971260067794859]}}]}